ONEWEB-0545             
1 54647U 22166F   25316.62305485  .00000133  00000+0  28935-3 0  9999
2 54647  87.9184 287.1871 0001643  98.3228 261.8093 13.21825893142890
ONEWEB-0580             
1 54648U 22166G   25316.97519678 -.00000063  00000+0 -18448-3 0  9991
2 54648  87.9182 287.1153 0001520  88.4843 271.6465 13.21826604142982
ONEWEB-0582             
1 54649U 22166H   25316.63950936  .00000067  00000+0  13178-3 0  9998
2 54649  87.9180 287.1756 0001383  93.8684 266.2609 13.21828152142913
ONEWEB-0583             
1 54650U 22166J   25316.87811782  .00000087  00000+0  17879-3 0  9995
2 54650  87.9176 287.1532 0001784  87.1692 272.9646 13.21828105142959
ONEWEB-0584             
1 54651U 22166K   25316.97356876 -.00000019  00000+0 -76636-4 0  9999
2 54651  87.9182 287.1193 0001512  84.6007 275.5299 13.21826558142954
ONEWEB-0585             
1 54652U 22166L   25316.84685426  .00000038  00000+0  60148-4 0  9992
2 54652  87.9183 287.1296 0001957  81.4749 278.6607 13.21824754142943
ONEWEB-0586             
1 54653U 22166M   25316.93571545  .00000024  00000+0  26822-4 0  9995
2 54653  87.9177 287.1376 0001743  87.6305 272.5029 13.21826537142958
ONEWEB-0587             
1 54654U 22166N   25316.86988267  .00000169  00000+0  37771-3 0  9995
2 54654  87.9190 287.1038 0002225  78.6168 281.5216 13.21828819143103
